[{"OBJECT_NAME":"EDISON-1","OBJECT_ID":"2025-009B","EPOCH":"2026-03-09T19:16:13.822464","MEAN_MOTION":15.29042904,"ECCENTRICITY":0.00043285,"INCLINATION":97.4042,"RA_OF_ASC_NODE":151.6286,"ARG_OF_PERICENTER":306.4185,"MEAN_ANOMALY":53.6655,"EPHEMERIS_TYPE":0,"CLASSIFICATION_TYPE":"U","NORAD_CAT_ID":62610,"ELEMENT_SET_NO":999,"REV_AT_EPOCH":6375,"BSTAR":0.00052814963,"MEAN_MOTION_DOT":0.00014835,"MEAN_MOTION_DDOT":0},{"OBJECT_NAME":"STARLINK-34266","OBJECT_ID":"2025-167R","EPOCH":"2026-03-09T06:30:00.393696","MEAN_MOTION":15.30187195,"ECCENTRICITY":0.00014315,"INCLINATION":53.1616,"RA_OF_ASC_NODE":28.7498,"ARG_OF_PERICENTER":92.1443,"MEAN_ANOMALY":267.9722,"EPHEMERIS_TYPE":0,"CLASSIFICATION_TYPE":"U","NORAD_CAT_ID":65093,"ELEMENT_SET_NO":999,"REV_AT_EPOCH":3341,"BSTAR":0.00079730713,"MEAN_MOTION_DOT":0.0002332,"MEAN_MOTION_DDOT":0}]
